EUTELSAT 21B            
1 38992U 12062B   25307.55669920  .00000143  00000+0  00000+0 0  9997
2 38992   0.0756  20.4933 0003044 215.4594  29.1442  1.00273043 47567
EUTELSAT 70B            
1 39020U 12069A   25307.76493685 -.00000031  00000+0  00000+0 0  9990
2 39020   0.0667   2.3771 0004355 218.6537 168.1323  1.00271740 47247
EUTELSAT 117 WEST A     
1 39122U 13012A   25307.77194332  .00000000  00000+0  00000+0 0  9995
2 39122   0.0309  23.9989 0003299 212.2955 328.1114  1.00271216 46178
EUTELSAT 7B             
1 39163U 13022A   25307.75237014  .00000061  00000+0  00000+0 0  9991
2 39163   0.0723   5.3446 0002890 300.8499  14.9467  1.00272175 45690
EXPRESS-AT1             
1 39612U 14010A   25307.83331721  .00000091  00000+0  00000+0 0  9990
2 39612   0.0133 262.0906 0000571 251.0975 246.1836  1.00273313 42553
EXPRESS-AT2             
1 39613U 14010B   25307.63585088 -.00000268  00000+0  00000+0 0  9993
2 39613   0.0136 261.2168 0001811  27.0417 123.6701  1.00273980 42233
EUTELSAT 3B             
1 39773U 14030A   25307.75159014  .00000033  00000+0  00000+0 0  9990
2 39773   0.0760  30.9805 0004634 184.8146 101.1314  1.00271117 41802
EUTELSAT 115 WEST B     
1 40425U 15010B   25306.51740596 -.00000013  00000+0  00000+0 0  9998
2 40425   0.0136 103.8472 0000231 293.0126  76.5714  1.00271889 39122
